YAOGAN-43 01G           
1 60464U 24148G   26068.44348481  .00010133  00000+0  35873-3 0  9993
2 60464  35.0006  62.0013 0007382 306.3543  53.6492 15.28332833 87004
STARLINK-32707          
1 62478U 24254S   26068.23707882  .00024903  00000+0  91105-3 0  9999
2 62478  43.0003  18.9358 0002324 257.6288 102.4304 15.27592539 67580
